KUIPER-00074            
1 64821U 25151F   25210.47998247  .00020999  00000+0  60952-3 0  9998
2 64821  51.8771 223.9161 0005119 193.0067 167.0788 15.35450839  2022
KUIPER-00075            
1 64822U 25151G   25210.47924834  .00019765  00000+0  57371-3 0  9990
2 64822  51.8781 223.9177 0004960 183.6768 176.4182 15.35492224  2023
KUIPER-00076            
1 64823U 25151H   25210.48071952  .00021772  00000+0  63410-3 0  9998
2 64823  51.8770 223.9211 0004846 193.0887 166.9974 15.35321943  2023
KUIPER-00077            
1 64824U 25151J   25210.48227166  .00018461  00000+0  54231-3 0  9991
2 64824  51.8787 223.9368 0005445 200.3081 159.7689 15.35161050  2023
KUIPER-00078            
1 64825U 25151K   25210.48199734  .00018994  00000+0  55694-3 0  9996
2 64825  51.8778 223.9316 0005588 203.3182 156.7551 15.35198231  2026
KUIPER-00079            
1 64826U 25151L   25210.47670431  .00021763  00000+0  62342-3 0  9990
2 64826  51.8775 223.8988 0005874 177.8375 182.2637 15.35838494  3229
KUIPER-00080            
1 64827U 25151M   25210.47916145  .00024869  00000+0  71706-3 0  9990
2 64827  51.8779 223.9176 0004862 187.9318 172.1592 15.35556882  2022
KUIPER-00082            
1 64828U 25151N   25210.47823440  .00019383  00000+0  55995-3 0  9993
2 64828  51.8774 223.9059 0005286 183.1093 176.9861 15.35653810  2027
KUIPER-00083            
1 64829U 25151P   25210.35100072  .00003742  00000+0  11844-3 0  9997
2 64829  51.8776 224.5536 0006106 198.3238 161.7528 15.35300910  3199
KUIPER-00084            
1 64830U 25151Q   25210.09241621  .00869551  00000+0  22823-1 0  9991
2 64830  51.8784 225.8222 0004491 241.6899 118.3634 15.35520598  1961
KUIPER-00085            
1 64831U 25151R   25210.47696540  .00020376  00000+0  58514-3 0  9990
2 64831  51.8775 223.8996 0005722 178.2660 181.8347 15.35804882  2022
KUIPER-00086            
1 64832U 25151S   25210.48249085  .00027148  00000+0  79309-3 0  9999
2 64832  51.8773 223.9337 0005393 203.4541 156.6199 15.35094192  2013
KUIPER-00087            
1 64833U 25151T   25210.47869403  .00022216  00000+0  64262-3 0  9994
2 64833  51.8777 223.9137 0005187 180.0392 180.0594 15.35522919  2025
KUIPER-00089            
1 64834U 25151U   25210.48124227  .00049810  00000+0  14359-2 0  9994
2 64834  51.8778 223.9258 0004180 192.0682 168.0205 15.35222864  2029
KUIPER-00090            
1 64835U 25151V   25210.48318621  .00021847  00000+0  64157-3 0  9990
2 64835  51.8782 223.9416 0005882 208.9806 151.0853 15.35055556  2018
KUIPER-00091            
1 64836U 25151W   25210.47741663  .00020937  00000+0  60222-3 0  9994
2 64836  51.8774 223.9005 0005682 179.5577 180.5415 15.35735669  2022
KUIPER-00092            
1 64837U 25151X   25210.47922468  .00074749  00000+0  21190-2 0  9999
2 64837  51.8774 223.9120 0004021 184.1631 175.9322 15.35565865  3238
KUIPER-00093            
1 64838U 25151Y   25210.48110036  .00016303  00000+0  47831-3 0  9994
2 64838  51.8785 223.9295 0005145 193.2711 166.8141 15.35295374  2021
KUIPER-00094            
1 64839U 25151Z   25210.47886011  .00022040  00000+0  63647-3 0  9995
2 64839  51.8772 223.9096 0005099 186.5093 173.5827 15.35580363  2024
